IRIDIUM 63              
1 25286U 98021B   25229.61495421  .00000341  00000+0  10946-3 0  9995
2 25286  86.3935  56.3435 0002352  88.9954 271.1513 14.36582330432666
IRIDIUM 69              
1 25319U 98026A   25229.57786867  .00000353  00000+0  10365-3 0  9997
2 25319  86.3920  69.4646 0003128 137.5343 222.6099 14.41015319431901
IRIDIUM 71              
1 25320U 98026B   25229.57676661  .00000344  00000+0  10039-3 0  9997
2 25320  86.3922  64.1444 0000961 162.4473 197.6760 14.41198048432432
IRIDIUM 73              
1 25344U 98032C   25229.33804607  .00000567  00000+0  13590-3 0  9999
2 25344  86.4425  20.8325 0002681 103.5221 256.6283 14.51772316439432
IRIDIUM 82              
1 25467U 98051A   25229.56506008  .00022700  00000+0  59797-3 0  9997
2 25467  86.3617  79.4904 0082706  64.0234 296.9507 15.34878668433365
